<?xml version="1.0" encoding="UTF-8"?>
<gpx creator="MapSource 6.16.3" version="1.1" schemaLocation="http://www.topografix.com/GPX/1/1 http://www.topografix.com/GPX/1/1/gpx.xsd" xmlns="http://www.topografix.com/GPX/1/1" xmlns:xsi="http://www.w3.org/2001/XMLSchema-instance" xsi:schemaLocation="http://www.topografix.com/GPX/1/1 http://www.topografix.com/GPX/1/1/gpx.xsd http://www.garmin.com/xmlschemas/GpxExtensions/v3 http://www.garmin.com/xmlschemas/GpxExtensionsv3.xsd http://www.garmin.com/xmlschemas/TrackPointExtension/v1 http://www.garmin.com/xmlschemas/TrackPointExtensionv1.xsd http://www.garmin.com/xmlschemas/PowerExtension/v1 http://www.garmin.com/xmlschemas/PowerExtensionv1.xsd http://www.topografix.com/GPX/gpx_style/0/2 http://www.topografix.com/GPX/gpx_style/0/2/gpx_style.xsd" xmlns:gpxtpx="http://www.garmin.com/xmlschemas/TrackPointExtension/v1" xmlns:gpxx="http://www.garmin.com/xmlschemas/GpxExtensions/v3" xmlns:gpxpx="http://www.garmin.com/xmlschemas/PowerExtension/v1" xmlns:gpx_style="http://www.topografix.com/GPX/gpx_style/0/2">
  <metadata>
    <name>22_venlo_swalmen</name>
    <author>
      <name>gpx.studio</name>
      <link href="https://gpx.studio"/>
    </author>
    <link href="http://www.garmin.com">
      <text>Garmin International</text>
    </link>
    <time>2025-11-18T12:02:32.000Z</time>
  </metadata>
  <wpt lat="0" lon="0">
    <ele>0</ele>
    <name>Station</name>
  </wpt>
  <trk>
    <name>Venlo-Swalmen</name>
    <trkseg>
      <trkpt lat="51.365732001140714" lon="6.17229200899601">
        <ele>22.5</ele>
      </trkpt>
      <trkpt lat="51.3656999822706" lon="6.172326039522886">
        <ele>22.75</ele>
      </trkpt>
      <trkpt lat="51.36563996784389" lon="6.172387981787324">
        <ele>22.75</ele>
      </trkpt>
      <trkpt lat="51.36538599617779" lon="6.172643965110183">
        <ele>23.25</ele>
      </trkpt>
      <trkpt lat="51.36525498703122" lon="6.172773968428373">
        <ele>23.5</ele>
      </trkpt>
      <trkpt lat="51.36522104032338" lon="6.172806993126869">
        <ele>23.5</ele>
      </trkpt>
      <trkpt lat="51.365136969834566" lon="6.172887040302157">
        <ele>23.75</ele>
      </trkpt>
      <trkpt lat="51.36492901481688" lon="6.173072028905153">
        <ele>24</ele>
      </trkpt>
      <trkpt lat="51.364855002611876" lon="6.173143023625016">
        <ele>24</ele>
      </trkpt>
      <trkpt lat="51.3644150365144" lon="6.173564968630672">
        <ele>23.5</ele>
      </trkpt>
      <trkpt lat="51.36434303596616" lon="6.173632023856044">
        <ele>23.25</ele>
      </trkpt>
      <trkpt lat="51.36358003132045" lon="6.174389999359846">
        <ele>23.25</ele>
      </trkpt>
      <trkpt lat="51.3629059586674" lon="6.175038004294038">
        <ele>22.75</ele>
      </trkpt>
      <trkpt lat="51.36151196435094" lon="6.176399979740381">
        <ele>22.25</ele>
      </trkpt>
      <trkpt lat="51.361459996551275" lon="6.176450019702315">
        <ele>22.25</ele>
      </trkpt>
      <trkpt lat="51.36110401712358" lon="6.176795018836856">
        <ele>22.5</ele>
      </trkpt>
      <trkpt lat="51.360748959705234" lon="6.177053013816476">
        <ele>22.75</ele>
      </trkpt>
      <trkpt lat="51.36052901856601" lon="6.177181005477905">
        <ele>22.75</ele>
      </trkpt>
      <trkpt lat="51.35938899591565" lon="6.177948033437133">
        <ele>23.5</ele>
      </trkpt>
      <trkpt lat="51.35934197343886" lon="6.177945015951991">
        <ele>23.5</ele>
      </trkpt>
      <trkpt lat="51.359269972890615" lon="6.177987009286881">
        <ele>23.5</ele>
      </trkpt>
      <trkpt lat="51.35923895984888" lon="6.178003018721938">
        <ele>23.5</ele>
      </trkpt>
      <trkpt lat="51.359224040061235" lon="6.178011987358332">
        <ele>23.5</ele>
      </trkpt>
      <trkpt lat="51.35917701758444" lon="6.177938980981708">
        <ele>23.5</ele>
      </trkpt>
      <trkpt lat="51.35914499871433" lon="6.177912997081876">
        <ele>23.25</ele>
      </trkpt>
      <trkpt lat="51.35910904034972" lon="6.177898999303579">
        <ele>23.25</ele>
      </trkpt>
      <trkpt lat="51.35907903313637" lon="6.17779397405684">
        <ele>23.25</ele>
      </trkpt>
      <trkpt lat="51.35904600843787" lon="6.177676962688565">
        <ele>23</ele>
      </trkpt>
      <trkpt lat="51.35900502093136" lon="6.177605967968702">
        <ele>23</ele>
      </trkpt>
      <trkpt lat="51.35897400788963" lon="6.177567997947335">
        <ele>23</ele>
      </trkpt>
      <trkpt lat="51.35893000289798" lon="6.17753597907722">
        <ele>23</ele>
      </trkpt>
      <trkpt lat="51.358882980421185" lon="6.177517035976052">
        <ele>23</ele>
      </trkpt>
      <trkpt lat="51.35828501544893" lon="6.177614014595747">
        <ele>23</ele>
      </trkpt>
      <trkpt lat="51.357787968590856" lon="6.177679980173707">
        <ele>23.25</ele>
      </trkpt>
      <trkpt lat="51.357786962762475" lon="6.177609991282225">
        <ele>23</ele>
      </trkpt>
      <trkpt lat="51.35777103714645" lon="6.177564980462194">
        <ele>23</ele>
      </trkpt>
      <trkpt lat="51.357740024104714" lon="6.177546037361026">
        <ele>23</ele>
      </trkpt>
      <trkpt lat="51.35754003189504" lon="6.177543019875884">
        <ele>23</ele>
      </trkpt>
      <trkpt lat="51.35745696723461" lon="6.177543019875884">
        <ele>23</ele>
      </trkpt>
      <trkpt lat="51.356862019747496" lon="6.177484011277556">
        <ele>22.75</ele>
      </trkpt>
      <trkpt lat="51.35664199478924" lon="6.177461966872215">
        <ele>22.75</ele>
      </trkpt>
      <trkpt lat="51.3565509673208" lon="6.177443023771048">
        <ele>23</ele>
      </trkpt>
      <trkpt lat="51.35633496567607" lon="6.177372029051185">
        <ele>23</ele>
      </trkpt>
      <trkpt lat="51.35609700344503" lon="6.177296005189419">
        <ele>23</ele>
      </trkpt>
      <trkpt lat="51.3560329657048" lon="6.177287036553025">
        <ele>23</ele>
      </trkpt>
      <trkpt lat="51.35603598318994" lon="6.177113028243184">
        <ele>22.75</ele>
      </trkpt>
      <trkpt lat="51.3560329657048" lon="6.177057037129998">
        <ele>22.5</ele>
      </trkpt>
      <trkpt lat="51.35602701455355" lon="6.176950000226498">
        <ele>22.25</ele>
      </trkpt>
      <trkpt lat="51.355979992076755" lon="6.176859978586435">
        <ele>22.25</ele>
      </trkpt>
      <trkpt lat="51.35580598376691" lon="6.176779009401798">
        <ele>22.5</ele>
      </trkpt>
      <trkpt lat="51.355399964377284" lon="6.17658999748528">
        <ele>23.25</ele>
      </trkpt>
      <trkpt lat="51.354996962472796" lon="6.176368966698647">
        <ele>24.25</ele>
      </trkpt>
      <trkpt lat="51.35470602661371" lon="6.176149025559425">
        <ele>24.25</ele>
      </trkpt>
      <trkpt lat="51.35390999726951" lon="6.175379985943437">
        <ele>23.75</ele>
      </trkpt>
      <trkpt lat="51.35368997231126" lon="6.175200026482344">
        <ele>25</ele>
      </trkpt>
      <trkpt lat="51.353295017033815" lon="6.17482703179121">
        <ele>26.25</ele>
      </trkpt>
      <trkpt lat="51.35312997736037" lon="6.174670038744807">
        <ele>27</ele>
      </trkpt>
      <trkpt lat="51.35284801013768" lon="6.174369966611266">
        <ele>26.75</ele>
      </trkpt>
      <trkpt lat="51.352650029584765" lon="6.174159999936819">
        <ele>27</ele>
      </trkpt>
      <trkpt lat="51.35155996307731" lon="6.172887962311506">
        <ele>26.5</ele>
      </trkpt>
      <trkpt lat="51.351381009444594" lon="6.172654023393989">
        <ele>26</ele>
      </trkpt>
      <trkpt lat="51.35131303220987" lon="6.172473980113864">
        <ele>25.75</ele>
      </trkpt>
      <trkpt lat="51.3512700330466" lon="6.17225001566112">
        <ele>25</ele>
      </trkpt>
      <trkpt lat="51.35119702666998" lon="6.17177601903677">
        <ele>24</ele>
      </trkpt>
      <trkpt lat="51.3511270377785" lon="6.171736959367991">
        <ele>24</ele>
      </trkpt>
      <trkpt lat="51.350370990112424" lon="6.171506037935615">
        <ele>26.75</ele>
      </trkpt>
      <trkpt lat="51.35036503896117" lon="6.171505032107234">
        <ele>27</ele>
      </trkpt>
      <trkpt lat="51.35027904063463" lon="6.171502014622092">
        <ele>27.5</ele>
      </trkpt>
      <trkpt lat="51.35013101622462" lon="6.171584995463491">
        <ele>28.75</ele>
      </trkpt>
      <trkpt lat="51.34976196102798" lon="6.171937035396695">
        <ele>31.75</ele>
      </trkpt>
      <trkpt lat="51.34936700575054" lon="6.172258984297514">
        <ele>35.5</ele>
      </trkpt>
      <trkpt lat="51.34897297248244" lon="6.172628961503506">
        <ele>39.25</ele>
      </trkpt>
      <trkpt lat="51.34832303971052" lon="6.172641031444073">
        <ele>42</ele>
      </trkpt>
      <trkpt lat="51.34832396171987" lon="6.17287203669548">
        <ele>42.25</ele>
      </trkpt>
      <trkpt lat="51.34829596616328" lon="6.173094995319843">
        <ele>42.75</ele>
      </trkpt>
      <trkpt lat="51.348060015589" lon="6.173981968313456">
        <ele>44</ele>
      </trkpt>
      <trkpt lat="51.34798499755561" lon="6.174258990213275">
        <ele>44.25</ele>
      </trkpt>
      <trkpt lat="51.34794099256396" lon="6.174426963552833">
        <ele>44.75</ele>
      </trkpt>
      <trkpt lat="51.34789698757231" lon="6.174573982134461">
        <ele>45</ele>
      </trkpt>
      <trkpt lat="51.347665982320905" lon="6.175391972064972">
        <ele>45.75</ele>
      </trkpt>
      <trkpt lat="51.3475610408932" lon="6.175309997051954">
        <ele>46</ele>
      </trkpt>
      <trkpt lat="51.34754100814462" lon="6.175301028415561">
        <ele>46</ele>
      </trkpt>
      <trkpt lat="51.34681303985417" lon="6.175144035369158">
        <ele>41.5</ele>
      </trkpt>
      <trkpt lat="51.34663098491728" lon="6.175124002620578">
        <ele>40.25</ele>
      </trkpt>
      <trkpt lat="51.34645102545619" lon="6.175197008997202">
        <ele>38.5</ele>
      </trkpt>
      <trkpt lat="51.34630601853132" lon="6.175306979566813">
        <ele>37</ele>
      </trkpt>
      <trkpt lat="51.34628497995436" lon="6.175318965688348">
        <ele>36.75</ele>
      </trkpt>
      <trkpt lat="51.3459790404886" lon="6.175490962341428">
        <ele>33.75</ele>
      </trkpt>
      <trkpt lat="51.34592296555638" lon="6.175704030320048">
        <ele>33.5</ele>
      </trkpt>
      <trkpt lat="51.34588700719178" lon="6.176170986145735">
        <ele>33.75</ele>
      </trkpt>
      <trkpt lat="51.345884995535016" lon="6.176466029137373">
        <ele>34</ele>
      </trkpt>
      <trkpt lat="51.34584400802851" lon="6.176645988598466">
        <ele>34</ele>
      </trkpt>
      <trkpt lat="51.34565399028361" lon="6.176864001899958">
        <ele>35.75</ele>
      </trkpt>
      <trkpt lat="51.345603028312325" lon="6.176893003284931">
        <ele>36.25</ele>
      </trkpt>
      <trkpt lat="51.345130037516356" lon="6.177031975239515">
        <ele>39.25</ele>
      </trkpt>
      <trkpt lat="51.345108998939395" lon="6.176950000226498">
        <ele>39.75</ele>
      </trkpt>
      <trkpt lat="51.34503901004791" lon="6.176833994686604">
        <ele>40.75</ele>
      </trkpt>
      <trkpt lat="51.34489702060819" lon="6.176824020221829">
        <ele>41.5</ele>
      </trkpt>
      <trkpt lat="51.344636008143425" lon="6.176811028271914">
        <ele>42.5</ele>
      </trkpt>
      <trkpt lat="51.34451597929001" lon="6.176802981644869">
        <ele>43</ele>
      </trkpt>
      <trkpt lat="51.34441799484193" lon="6.176792001351714">
        <ele>43.25</ele>
      </trkpt>
      <trkpt lat="51.34416896849871" lon="6.176764005795121">
        <ele>44</ele>
      </trkpt>
      <trkpt lat="51.34370201267302" lon="6.176693011075258">
        <ele>42.75</ele>
      </trkpt>
      <trkpt lat="51.343413004651666" lon="6.176700973883271">
        <ele>42</ele>
      </trkpt>
      <trkpt lat="51.34271495975554" lon="6.176663003861904">
        <ele>40.5</ele>
      </trkpt>
      <trkpt lat="51.34262200444937" lon="6.176626961678267">
        <ele>40</ele>
      </trkpt>
      <trkpt lat="51.34254296310246" lon="6.176593014970422">
        <ele>39.75</ele>
      </trkpt>
      <trkpt lat="51.34245000779629" lon="6.176729975268245">
        <ele>40</ele>
      </trkpt>
      <trkpt lat="51.34238999336958" lon="6.176885040476918">
        <ele>40.25</ele>
      </trkpt>
      <trkpt lat="51.34232603944838" lon="6.177002973854542">
        <ele>40.25</ele>
      </trkpt>
      <trkpt lat="51.34225999005139" lon="6.177080003544688">
        <ele>40.5</ele>
      </trkpt>
      <trkpt lat="51.342104002833366" lon="6.177203971892595">
        <ele>40.75</ele>
      </trkpt>
      <trkpt lat="51.34176998399198" lon="6.177471019327641">
        <ele>41.75</ele>
      </trkpt>
      <trkpt lat="51.34050699882209" lon="6.178345000371337">
        <ele>45</ele>
      </trkpt>
      <trkpt lat="51.34020298719406" lon="6.178102008998394">
        <ele>44</ele>
      </trkpt>
      <trkpt lat="51.33991900831461" lon="6.177938980981708">
        <ele>43.5</ele>
      </trkpt>
      <trkpt lat="51.339030023664236" lon="6.177587024867535">
        <ele>43.75</ele>
      </trkpt>
      <trkpt lat="51.338384030386806" lon="6.177331041544676">
        <ele>44.25</ele>
      </trkpt>
      <trkpt lat="51.33817397989333" lon="6.177294999361038">
        <ele>45</ele>
      </trkpt>
      <trkpt lat="51.33809301070869" lon="6.17732098326087">
        <ele>45.25</ele>
      </trkpt>
      <trkpt lat="51.33739102631807" lon="6.175032975152135">
        <ele>43.25</ele>
      </trkpt>
      <trkpt lat="51.337337968871" lon="6.174857961013913">
        <ele>43.25</ele>
      </trkpt>
      <trkpt lat="51.335719004273415" lon="6.176167968660593">
        <ele>47.75</ele>
      </trkpt>
      <trkpt lat="51.3357060123235" lon="6.176134021952748">
        <ele>47.75</ele>
      </trkpt>
      <trkpt lat="51.33554399013519" lon="6.175620965659618">
        <ele>47</ele>
      </trkpt>
      <trkpt lat="51.335398983210325" lon="6.175151998177171">
        <ele>46.75</ele>
      </trkpt>
      <trkpt lat="51.33503898046911" lon="6.173984985798597">
        <ele>46.5</ele>
      </trkpt>
      <trkpt lat="51.335014002397656" lon="6.173986997455359">
        <ele>46.5</ele>
      </trkpt>
      <trkpt lat="51.33497200906277" lon="6.173919020220637">
        <ele>46.5</ele>
      </trkpt>
      <trkpt lat="51.33496002294123" lon="6.173850959166884">
        <ele>46.5</ele>
      </trkpt>
      <trkpt lat="51.334949964657426" lon="6.173616014420986">
        <ele>46</ele>
      </trkpt>
      <trkpt lat="51.3349099829793" lon="6.172630973160267">
        <ele>44.25</ele>
      </trkpt>
      <trkpt lat="51.334882993251085" lon="6.172498036175966">
        <ele>43.75</ele>
      </trkpt>
      <trkpt lat="51.334883999079466" lon="6.172413965687156">
        <ele>43.75</ele>
      </trkpt>
      <trkpt lat="51.33489900268614" lon="6.172230988740921">
        <ele>43.5</ele>
      </trkpt>
      <trkpt lat="51.33489003404975" lon="6.171189034357667">
        <ele>43</ele>
      </trkpt>
      <trkpt lat="51.33485600352287" lon="6.168912006542087">
        <ele>43</ele>
      </trkpt>
      <trkpt lat="51.33493001572788" lon="6.168794995173812">
        <ele>43</ele>
      </trkpt>
      <trkpt lat="51.334924986585975" lon="6.168518979102373">
        <ele>42.5</ele>
      </trkpt>
      <trkpt lat="51.33488701656461" lon="6.166328033432365">
        <ele>39.5</ele>
      </trkpt>
      <trkpt lat="51.334839994087815" lon="6.166189983487129">
        <ele>39.5</ele>
      </trkpt>
      <trkpt lat="51.33467897772789" lon="6.165973981842399">
        <ele>39.5</ele>
      </trkpt>
      <trkpt lat="51.33442299440503" lon="6.165649015456438">
        <ele>39.5</ele>
      </trkpt>
      <trkpt lat="51.33434898220003" lon="6.165692014619708">
        <ele>39.5</ele>
      </trkpt>
      <trkpt lat="51.3342759758234" lon="6.165613979101181">
        <ele>39.5</ele>
      </trkpt>
      <trkpt lat="51.33415603078902" lon="6.16541700437665">
        <ele>39.5</ele>
      </trkpt>
      <trkpt lat="51.33407900109887" lon="6.165221035480499">
        <ele>39.5</ele>
      </trkpt>
      <trkpt lat="51.33400498889387" lon="6.165127996355295">
        <ele>39.75</ele>
      </trkpt>
      <trkpt lat="51.33394002914429" lon="6.164940996095538">
        <ele>40</ele>
      </trkpt>
      <trkpt lat="51.33376702666283" lon="6.164527013897896">
        <ele>40.75</ele>
      </trkpt>
      <trkpt lat="51.33369100280106" lon="6.164360968396068">
        <ele>40.75</ele>
      </trkpt>
      <trkpt lat="51.333614978939295" lon="6.164194000884891">
        <ele>41.25</ele>
      </trkpt>
      <trkpt lat="51.33252901956439" lon="6.162810986861587">
        <ele>41.25</ele>
      </trkpt>
      <trkpt lat="51.332515021786094" lon="6.162587022408843">
        <ele>41</ele>
      </trkpt>
      <trkpt lat="51.332429023459554" lon="6.162469005212188">
        <ele>40.75</ele>
      </trkpt>
      <trkpt lat="51.33240102790296" lon="6.162428017705679">
        <ele>40.75</ele>
      </trkpt>
      <trkpt lat="51.331874979659915" lon="6.163471983745694">
        <ele>40.25</ele>
      </trkpt>
      <trkpt lat="51.331703988835216" lon="6.163814971223474">
        <ele>40</ele>
      </trkpt>
      <trkpt lat="51.33164598606527" lon="6.163741964846849">
        <ele>39.75</ele>
      </trkpt>
      <trkpt lat="51.331614973023534" lon="6.163739031180739">
        <ele>39.75</ele>
      </trkpt>
      <trkpt lat="51.33156099356711" lon="6.16384900175035">
        <ele>39.5</ele>
      </trkpt>
      <trkpt lat="51.331506008282304" lon="6.163861993700266">
        <ele>39.5</ele>
      </trkpt>
      <trkpt lat="51.33143400773406" lon="6.163845984265208">
        <ele>39.25</ele>
      </trkpt>
      <trkpt lat="51.33134197443724" lon="6.16382603533566">
        <ele>39</ele>
      </trkpt>
      <trkpt lat="51.33113603107631" lon="6.163913961499929">
        <ele>38.5</ele>
      </trkpt>
      <trkpt lat="51.3310210313648" lon="6.163951009511948">
        <ele>38</ele>
      </trkpt>
      <trkpt lat="51.33086001500487" lon="6.16397799924016">
        <ele>37.75</ele>
      </trkpt>
      <trkpt lat="51.330606965348125" lon="6.164076989516616">
        <ele>38.25</ele>
      </trkpt>
      <trkpt lat="51.33052700199187" lon="6.164044970646501">
        <ele>38.5</ele>
      </trkpt>
      <trkpt lat="51.33027101866901" lon="6.163999959826469">
        <ele>39</ele>
      </trkpt>
      <trkpt lat="51.33018502034247" lon="6.164007000625134">
        <ele>39.25</ele>
      </trkpt>
      <trkpt lat="51.33014897815883" lon="6.164025021716952">
        <ele>39.25</ele>
      </trkpt>
      <trkpt lat="51.33012601174414" lon="6.16408696398139">
        <ele>39.5</ele>
      </trkpt>
      <trkpt lat="51.3301179651171" lon="6.164139015600085">
        <ele>39.5</ele>
      </trkpt>
      <trkpt lat="51.33010597899556" lon="6.164424000307918">
        <ele>40</ele>
      </trkpt>
      <trkpt lat="51.33009801618755" lon="6.164488038048148">
        <ele>40</ele>
      </trkpt>
      <trkpt lat="51.33006197400391" lon="6.164552997797728">
        <ele>40.25</ele>
      </trkpt>
      <trkpt lat="51.33001897484064" lon="6.164573030546308">
        <ele>40.25</ele>
      </trkpt>
      <trkpt lat="51.32986801676452" lon="6.164608988910914">
        <ele>40.5</ele>
      </trkpt>
      <trkpt lat="51.329811019822955" lon="6.164606977254152">
        <ele>40.75</ele>
      </trkpt>
      <trkpt lat="51.329604992643" lon="6.164520978927612">
        <ele>41.25</ele>
      </trkpt>
      <trkpt lat="51.32941698655486" lon="6.164463981986046">
        <ele>41.75</ele>
      </trkpt>
      <trkpt lat="51.329296035692096" lon="6.16440799087286">
        <ele>42</ele>
      </trkpt>
      <trkpt lat="51.329293018206954" lon="6.164406985044479">
        <ele>42.25</ele>
      </trkpt>
      <trkpt lat="51.329231997951865" lon="6.164399022236466">
        <ele>42.5</ele>
      </trkpt>
      <trkpt lat="51.32919302210212" lon="6.164379995316267">
        <ele>42.75</ele>
      </trkpt>
      <trkpt lat="51.329082967713475" lon="6.164291985332966">
        <ele>43.5</ele>
      </trkpt>
      <trkpt lat="51.32892698049545" lon="6.16421302780509">
        <ele>44.25</ele>
      </trkpt>
      <trkpt lat="51.32883897051215" lon="6.164151001721621">
        <ele>44.75</ele>
      </trkpt>
      <trkpt lat="51.328761018812656" lon="6.164151001721621">
        <ele>45</ele>
      </trkpt>
      <trkpt lat="51.32862699218094" lon="6.164131974801421">
        <ele>45.5</ele>
      </trkpt>
      <trkpt lat="51.32850796915591" lon="6.164072966203094">
        <ele>46</ele>
      </trkpt>
      <trkpt lat="51.328456001356244" lon="6.164036002010107">
        <ele>46.5</ele>
      </trkpt>
      <trkpt lat="51.328266989439726" lon="6.163970958441496">
        <ele>47</ele>
      </trkpt>
      <trkpt lat="51.32820303551853" lon="6.163966013118625">
        <ele>47</ele>
      </trkpt>
      <trkpt lat="51.3281199708581" lon="6.163927959278226">
        <ele>47</ele>
      </trkpt>
      <trkpt lat="51.32795199751854" lon="6.1639120336622">
        <ele>46.75</ele>
      </trkpt>
      <trkpt lat="51.32760004140437" lon="6.163919996470213">
        <ele>46</ele>
      </trkpt>
      <trkpt lat="51.327472971752286" lon="6.1639120336622">
        <ele>45.5</ele>
      </trkpt>
      <trkpt lat="51.32740097120404" lon="6.164100039750338">
        <ele>44</ele>
      </trkpt>
      <trkpt lat="51.327339028939605" lon="6.164226019755006">
        <ele>43</ele>
      </trkpt>
      <trkpt lat="51.327254958450794" lon="6.164351999759674">
        <ele>42</ele>
      </trkpt>
      <trkpt lat="51.327082039788365" lon="6.164588034152985">
        <ele>40.5</ele>
      </trkpt>
      <trkpt lat="51.32696100510657" lon="6.164733041077852">
        <ele>40</ele>
      </trkpt>
      <trkpt lat="51.326645007357" lon="6.165033029392362">
        <ele>40</ele>
      </trkpt>
      <trkpt lat="51.32655498571694" lon="6.165108969435096">
        <ele>40</ele>
      </trkpt>
      <trkpt lat="51.32648902013898" lon="6.165163032710552">
        <ele>40</ele>
      </trkpt>
      <trkpt lat="51.326418025419116" lon="6.165219023823738">
        <ele>40.25</ele>
      </trkpt>
      <trkpt lat="51.32636102847755" lon="6.165126990526915">
        <ele>40</ele>
      </trkpt>
      <trkpt lat="51.32630101405084" lon="6.165034035220742">
        <ele>39.75</ele>
      </trkpt>
      <trkpt lat="51.325925001874566" lon="6.164455013349652">
        <ele>38.75</ele>
      </trkpt>
      <trkpt lat="51.32573397830129" lon="6.164209004491568">
        <ele>39</ele>
      </trkpt>
      <trkpt lat="51.32558695971966" lon="6.164056034758687">
        <ele>39.75</ele>
      </trkpt>
      <trkpt lat="51.32503400556743" lon="6.163565022870898">
        <ele>42</ele>
      </trkpt>
      <trkpt lat="51.32485496811569" lon="6.163433007895947">
        <ele>43.25</ele>
      </trkpt>
      <trkpt lat="51.32473602890968" lon="6.163384979590774">
        <ele>44.25</ele>
      </trkpt>
      <trkpt lat="51.32462102919817" lon="6.163379028439522">
        <ele>45.75</ele>
      </trkpt>
      <trkpt lat="51.324508963152766" lon="6.16329001262784">
        <ele>46.75</ele>
      </trkpt>
      <trkpt lat="51.32439102977514" lon="6.163194961845875">
        <ele>47.75</ele>
      </trkpt>
      <trkpt lat="51.323927007615566" lon="6.162789026275277">
        <ele>50</ele>
      </trkpt>
      <trkpt lat="51.32356398738921" lon="6.162471016868949">
        <ele>50.25</ele>
      </trkpt>
      <trkpt lat="51.32341202348471" lon="6.162348976358771">
        <ele>49.75</ele>
      </trkpt>
      <trkpt lat="51.3231810182333" lon="6.162161976099014">
        <ele>49.5</ele>
      </trkpt>
      <trkpt lat="51.32305897772312" lon="6.162061979994178">
        <ele>49.25</ele>
      </trkpt>
      <trkpt lat="51.32278002798557" lon="6.161981010809541">
        <ele>49.75</ele>
      </trkpt>
      <trkpt lat="51.32183798588812" lon="6.161655960604549">
        <ele>56.25</ele>
      </trkpt>
      <trkpt lat="51.32159197703004" lon="6.161530986428261">
        <ele>57.5</ele>
      </trkpt>
      <trkpt lat="51.32104899734259" lon="6.160961017012596">
        <ele>56.75</ele>
      </trkpt>
      <trkpt lat="51.32008499465883" lon="6.159947980195284">
        <ele>55.75</ele>
      </trkpt>
      <trkpt lat="51.31970202550292" lon="6.159558976069093">
        <ele>54.5</ele>
      </trkpt>
      <trkpt lat="51.316599966958165" lon="6.159499967470765">
        <ele>52.25</ele>
      </trkpt>
      <trkpt lat="51.31608095951378" lon="6.159417992457748">
        <ele>53.75</ele>
      </trkpt>
      <trkpt lat="51.31582003086805" lon="6.159469960257411">
        <ele>54.25</ele>
      </trkpt>
      <trkpt lat="51.315673012286425" lon="6.159403994679451">
        <ele>54</ele>
      </trkpt>
      <trkpt lat="51.31547796539962" lon="6.15918698720634">
        <ele>54</ele>
      </trkpt>
      <trkpt lat="51.3153270073235" lon="6.158997975289822">
        <ele>54</ele>
      </trkpt>
      <trkpt lat="51.31430399604142" lon="6.15772501565516">
        <ele>54</ele>
      </trkpt>
      <trkpt lat="51.31345700472593" lon="6.156698986887932">
        <ele>51.75</ele>
      </trkpt>
      <trkpt lat="51.313118962571025" lon="6.156249968335033">
        <ele>52.75</ele>
      </trkpt>
      <trkpt lat="51.31256399676204" lon="6.155621996149421">
        <ele>55.25</ele>
      </trkpt>
      <trkpt lat="51.312451008707285" lon="6.155494004487991">
        <ele>55.5</ele>
      </trkpt>
      <trkpt lat="51.312042977660894" lon="6.15512696094811">
        <ele>55</ele>
      </trkpt>
      <trkpt lat="51.31161700934172" lon="6.154822027310729">
        <ele>54</ele>
      </trkpt>
      <trkpt lat="51.31111401133239" lon="6.154191037639976">
        <ele>53.5</ele>
      </trkpt>
      <trkpt lat="51.3103639986366" lon="6.154182991012931">
        <ele>53</ele>
      </trkpt>
      <trkpt lat="51.30949496291578" lon="6.154154995456338">
        <ele>55.25</ele>
      </trkpt>
      <trkpt lat="51.30911702290177" lon="6.15420201793313">
        <ele>56.5</ele>
      </trkpt>
      <trkpt lat="51.30910403095186" lon="6.154200006276369">
        <ele>56.25</ele>
      </trkpt>
      <trkpt lat="51.30761196836829" lon="6.153976041823626">
        <ele>49.25</ele>
      </trkpt>
      <trkpt lat="51.3073439989239" lon="6.153907980769873">
        <ele>49.75</ele>
      </trkpt>
      <trkpt lat="51.307271998375654" lon="6.153887026011944">
        <ele>50</ele>
      </trkpt>
      <trkpt lat="51.30556804127991" lon="6.152220033109188">
        <ele>54</ele>
      </trkpt>
      <trkpt lat="51.305552031844854" lon="6.152206035330892">
        <ele>54</ele>
      </trkpt>
      <trkpt lat="51.3042820058763" lon="6.151040028780699">
        <ele>56.75</ele>
      </trkpt>
      <trkpt lat="51.30405896343291" lon="6.150823021307588">
        <ele>57</ele>
      </trkpt>
      <trkpt lat="51.30292497575283" lon="6.149763967841864">
        <ele>57.5</ele>
      </trkpt>
      <trkpt lat="51.30134901031852" lon="6.148326974362135">
        <ele>56.75</ele>
      </trkpt>
      <trkpt lat="51.30035902373493" lon="6.147388033568859">
        <ele>56</ele>
      </trkpt>
      <trkpt lat="51.3003499712795" lon="6.147378981113434">
        <ele>56</ele>
      </trkpt>
      <trkpt lat="51.29947900772095" lon="6.146583035588265">
        <ele>56.5</ele>
      </trkpt>
      <trkpt lat="51.29810303449631" lon="6.145237991586328">
        <ele>55.75</ele>
      </trkpt>
      <trkpt lat="51.29753599874675" lon="6.144651006907225">
        <ele>53.5</ele>
      </trkpt>
      <trkpt lat="51.297283032909036" lon="6.144442968070507">
        <ele>52.5</ele>
      </trkpt>
      <trkpt lat="51.29714800044894" lon="6.144364010542631">
        <ele>52.5</ele>
      </trkpt>
      <trkpt lat="51.29699897021055" lon="6.144299972802401">
        <ele>52.75</ele>
      </trkpt>
      <trkpt lat="51.29685899242759" lon="6.144206011667848">
        <ele>52.75</ele>
      </trkpt>
      <trkpt lat="51.2967839743942" lon="6.144155971705914">
        <ele>53</ele>
      </trkpt>
      <trkpt lat="51.296573001891375" lon="6.144056981429458">
        <ele>53.5</ele>
      </trkpt>
      <trkpt lat="51.29613202996552" lon="6.144016999751329">
        <ele>55</ele>
      </trkpt>
      <trkpt lat="51.296019963920116" lon="6.143972994759679">
        <ele>55.25</ele>
      </trkpt>
      <trkpt lat="51.295739002525806" lon="6.143733020871878">
        <ele>55.25</ele>
      </trkpt>
      <trkpt lat="51.29555803723633" lon="6.143627995625138">
        <ele>55.5</ele>
      </trkpt>
      <trkpt lat="51.29548503085971" lon="6.14354501478374">
        <ele>55.75</ele>
      </trkpt>
      <trkpt lat="51.29538402892649" lon="6.143506960943341">
        <ele>56</ele>
      </trkpt>
      <trkpt lat="51.29529300145805" lon="6.143447030335665">
        <ele>56.5</ele>
      </trkpt>
      <trkpt lat="51.295198034495115" lon="6.143453987315297">
        <ele>57</ele>
      </trkpt>
      <trkpt lat="51.29501002840698" lon="6.143227005377412">
        <ele>57.25</ele>
      </trkpt>
      <trkpt lat="51.29498002119362" lon="6.143189035356045">
        <ele>57</ele>
      </trkpt>
      <trkpt lat="51.294831996783614" lon="6.142863985151053">
        <ele>55.75</ele>
      </trkpt>
      <trkpt lat="51.294681038707495" lon="6.142669022083283">
        <ele>55.25</ele>
      </trkpt>
      <trkpt lat="51.29420201294124" lon="6.142122019082308">
        <ele>55</ele>
      </trkpt>
      <trkpt lat="51.294082989916205" lon="6.142021017149091">
        <ele>55.25</ele>
      </trkpt>
      <trkpt lat="51.29402901045978" lon="6.141963014379144">
        <ele>55.5</ele>
      </trkpt>
      <trkpt lat="51.293886015191674" lon="6.141878021880984">
        <ele>56.25</ele>
      </trkpt>
      <trkpt lat="51.293799011036754" lon="6.141811972483993">
        <ele>56.75</ele>
      </trkpt>
      <trkpt lat="51.29374100826681" lon="6.141795963048935">
        <ele>57.25</ele>
      </trkpt>
      <trkpt lat="51.29374503158033" lon="6.141810966655612">
        <ele>57.25</ele>
      </trkpt>
      <trkpt lat="51.29374100826681" lon="6.141795963048935">
        <ele>57.25</ele>
      </trkpt>
      <trkpt lat="51.29362097941339" lon="6.141321966424584">
        <ele>56.25</ele>
      </trkpt>
      <trkpt lat="51.293565994128585" lon="6.141099007800221">
        <ele>55.5</ele>
      </trkpt>
      <trkpt lat="51.29324899055064" lon="6.140481010079384">
        <ele>54</ele>
      </trkpt>
      <trkpt lat="51.293052015826106" lon="6.140314964577556">
        <ele>53.25</ele>
      </trkpt>
      <trkpt lat="51.29278396256268" lon="6.140448991209269">
        <ele>53.75</ele>
      </trkpt>
      <trkpt lat="51.29238096065819" lon="6.14090102724731">
        <ele>55</ele>
      </trkpt>
      <trkpt lat="51.2921959720552" lon="6.141059026122093">
        <ele>55.25</ele>
      </trkpt>
      <trkpt lat="51.29218096844852" lon="6.141087021678686">
        <ele>55.25</ele>
      </trkpt>
      <trkpt lat="51.292127994820476" lon="6.141193974763155">
        <ele>55.5</ele>
      </trkpt>
      <trkpt lat="51.29207602702081" lon="6.141420034691691">
        <ele>55.75</ele>
      </trkpt>
      <trkpt lat="51.292043002322316" lon="6.141536962240934">
        <ele>55.75</ele>
      </trkpt>
      <trkpt lat="51.291998997330666" lon="6.141635030508041">
        <ele>55.75</ele>
      </trkpt>
      <trkpt lat="51.29181099124253" lon="6.141835022717714">
        <ele>55</ele>
      </trkpt>
      <trkpt lat="51.291610999032855" lon="6.142012970522046">
        <ele>54.5</ele>
      </trkpt>
      <trkpt lat="51.29160303622484" lon="6.141833011060953">
        <ele>54.25</ele>
      </trkpt>
      <trkpt lat="51.29160596989095" lon="6.141627989709377">
        <ele>54</ele>
      </trkpt>
      <trkpt lat="51.29161803983152" lon="6.14141802303493">
        <ele>54</ele>
      </trkpt>
      <trkpt lat="51.29164100624621" lon="6.141186011955142">
        <ele>54</ele>
      </trkpt>
      <trkpt lat="51.29167000763118" lon="6.140914019197226">
        <ele>54</ele>
      </trkpt>
      <trkpt lat="51.291719041764736" lon="6.140591986477375">
        <ele>54</ele>
      </trkpt>
      <trkpt lat="51.29165098071098" lon="6.140591986477375">
        <ele>54</ele>
      </trkpt>
      <trkpt lat="51.291825994849205" lon="6.139839040115476">
        <ele>53.25</ele>
      </trkpt>
      <trkpt lat="51.29200696013868" lon="6.139191035181284">
        <ele>51.25</ele>
      </trkpt>
      <trkpt lat="51.292086001485586" lon="6.138575971126556">
        <ele>49.25</ele>
      </trkpt>
      <trkpt lat="51.292103016749024" lon="6.13845300860703">
        <ele>49</ele>
      </trkpt>
      <trkpt lat="51.29216403700411" lon="6.137579027563334">
        <ele>40.75</ele>
      </trkpt>
      <trkpt lat="51.291957003995776" lon="6.137352967634797">
        <ele>39.75</ele>
      </trkpt>
      <trkpt lat="51.29183596931398" lon="6.137146018445492">
        <ele>38.5</ele>
      </trkpt>
      <trkpt lat="51.29146699793637" lon="6.13679900765419">
        <ele>38.75</ele>
      </trkpt>
      <trkpt lat="51.29112996160984" lon="6.136457026004791">
        <ele>40.5</ele>
      </trkpt>
      <trkpt lat="51.29110096022487" lon="6.136432969942689">
        <ele>40.5</ele>
      </trkpt>
      <trkpt lat="51.29082896746695" lon="6.136214034631848">
        <ele>41.5</ele>
      </trkpt>
      <trkpt lat="51.28996999002993" lon="6.135346004739404">
        <ele>41.5</ele>
      </trkpt>
      <trkpt lat="51.28982498310506" lon="6.13525103777647">
        <ele>42.25</ele>
      </trkpt>
      <trkpt lat="51.289545027539134" lon="6.135023972019553">
        <ele>43.5</ele>
      </trkpt>
      <trkpt lat="51.28792497329414" lon="6.133626038208604">
        <ele>42.5</ele>
      </trkpt>
      <trkpt lat="51.285789012908936" lon="6.131751006469131">
        <ele>42</ele>
      </trkpt>
      <trkpt lat="51.28532197326422" lon="6.13134004175663">
        <ele>42</ele>
      </trkpt>
      <trkpt lat="51.28175396472216" lon="6.128138992935419">
        <ele>40.75</ele>
      </trkpt>
      <trkpt lat="51.27945698797703" lon="6.12607897259295">
        <ele>40</ele>
      </trkpt>
      <trkpt lat="51.27870202995837" lon="6.125398026779294">
        <ele>39.75</ele>
      </trkpt>
      <trkpt lat="51.277537029236555" lon="6.124791009351611">
        <ele>39.75</ele>
      </trkpt>
      <trkpt lat="51.27752303145826" lon="6.12478899769485">
        <ele>39.5</ele>
      </trkpt>
      <trkpt lat="51.27512203529477" lon="6.124611971899867">
        <ele>37</ele>
      </trkpt>
      <trkpt lat="51.27492900006473" lon="6.124644996598363">
        <ele>37.25</ele>
      </trkpt>
      <trkpt lat="51.2748839892447" lon="6.124652959406376">
        <ele>37.5</ele>
      </trkpt>
      <trkpt lat="51.27482598647475" lon="6.124677015468478">
        <ele>38</ele>
      </trkpt>
      <trkpt lat="51.27474803477526" lon="6.124714985489845">
        <ele>38.5</ele>
      </trkpt>
      <trkpt lat="51.274766977876425" lon="6.124769970774651">
        <ele>38.5</ele>
      </trkpt>
      <trkpt lat="51.27466798759997" lon="6.12461700104177">
        <ele>38.5</ele>
      </trkpt>
      <trkpt lat="51.27465499565005" lon="6.124538965523243">
        <ele>38.5</ele>
      </trkpt>
      <trkpt lat="51.274656001478434" lon="6.124465959146619">
        <ele>38.25</ele>
      </trkpt>
      <trkpt lat="51.274676034227014" lon="6.124425977468491">
        <ele>38</ele>
      </trkpt>
      <trkpt lat="51.27437696792185" lon="6.124006966128945">
        <ele>37.5</ele>
      </trkpt>
      <trkpt lat="51.27385997213423" lon="6.123285032808781">
        <ele>37.25</ele>
      </trkpt>
      <trkpt lat="51.27337600104511" lon="6.122564021497965">
        <ele>38</ele>
      </trkpt>
      <trkpt lat="51.272854981943965" lon="6.121829012408853">
        <ele>39</ele>
      </trkpt>
      <trkpt lat="51.27153701148927" lon="6.119906958192587">
        <ele>36</ele>
      </trkpt>
      <trkpt lat="51.27002902328968" lon="6.117759011685848">
        <ele>34.5</ele>
      </trkpt>
      <trkpt lat="51.26874097622931" lon="6.115923961624503">
        <ele>33.25</ele>
      </trkpt>
      <trkpt lat="51.268602004274726" lon="6.116057988256216">
        <ele>34.25</ele>
      </trkpt>
      <trkpt lat="51.26847996376455" lon="6.116152033209801">
        <ele>35</ele>
      </trkpt>
      <trkpt lat="51.26809095963836" lon="6.116515975445509">
        <ele>36.75</ele>
      </trkpt>
      <trkpt lat="51.26648699864745" lon="6.114425025880337">
        <ele>37.5</ele>
      </trkpt>
      <trkpt lat="51.266190027818084" lon="6.114006014540792">
        <ele>37.5</ele>
      </trkpt>
      <trkpt lat="51.2659300211817" lon="6.113677024841309">
        <ele>37.5</ele>
      </trkpt>
      <trkpt lat="51.26551897265017" lon="6.113264970481396">
        <ele>37.5</ele>
      </trkpt>
      <trkpt lat="51.2648559641093" lon="6.112665999680758">
        <ele>38.75</ele>
      </trkpt>
      <trkpt lat="51.26465203240514" lon="6.112502971664071">
        <ele>39.5</ele>
      </trkpt>
      <trkpt lat="51.264196978881955" lon="6.112203989177942">
        <ele>41.25</ele>
      </trkpt>
      <trkpt lat="51.26281698234379" lon="6.111257001757622">
        <ele>40.5</ele>
      </trkpt>
      <trkpt lat="51.261829007416964" lon="6.110578989610076">
        <ele>40</ele>
      </trkpt>
      <trkpt lat="51.26003796234727" lon="6.109316004440188">
        <ele>41</ele>
      </trkpt>
      <trkpt lat="51.258116997778416" lon="6.107948999851942">
        <ele>42.5</ele>
      </trkpt>
      <trkpt lat="51.25803301110864" lon="6.107800975441933">
        <ele>42.75</ele>
      </trkpt>
      <trkpt lat="51.25755398534238" lon="6.106879971921444">
        <ele>43.25</ele>
      </trkpt>
      <trkpt lat="51.25720303505659" lon="6.106056030839682">
        <ele>43.5</ele>
      </trkpt>
      <trkpt lat="51.25668201595545" lon="6.104388032108545">
        <ele>41.5</ele>
      </trkpt>
      <trkpt lat="51.256222017109394" lon="6.1027239728719">
        <ele>39</ele>
      </trkpt>
      <trkpt lat="51.25494402833283" lon="6.098349960520864">
        <ele>33</ele>
      </trkpt>
      <trkpt lat="51.25447296537459" lon="6.096719009801745">
        <ele>33.5</ele>
      </trkpt>
      <trkpt lat="51.254121009260416" lon="6.095534982159734">
        <ele>31.25</ele>
      </trkpt>
      <trkpt lat="51.254075998440385" lon="6.095427023246884">
        <ele>31</ele>
      </trkpt>
      <trkpt lat="51.25391003675759" lon="6.095229964703322">
        <ele>31</ele>
      </trkpt>
      <trkpt lat="51.254034005105495" lon="6.095166010782123">
        <ele>30.5</ele>
      </trkpt>
      <trkpt lat="51.25421698205173" lon="6.095068026334047">
        <ele>29.75</ele>
      </trkpt>
      <trkpt lat="51.253945995122194" lon="6.094679022207856">
        <ele>29.75</ele>
      </trkpt>
      <trkpt lat="51.25345699489117" lon="6.093974020332098">
        <ele>29.75</ele>
      </trkpt>
      <trkpt lat="51.247655963525176" lon="6.085617011412978">
        <ele>31.75</ele>
      </trkpt>
      <trkpt lat="51.24724097549915" lon="6.084510013461113">
        <ele>31.75</ele>
      </trkpt>
      <trkpt lat="51.24683101661503" lon="6.084706988185644">
        <ele>38</ele>
      </trkpt>
      <trkpt lat="51.246794974431396" lon="6.084615038707852">
        <ele>38.25</ele>
      </trkpt>
      <trkpt lat="51.24675499275327" lon="6.084577990695834">
        <ele>38.75</ele>
      </trkpt>
      <trkpt lat="51.24620002694428" lon="6.084839003160596">
        <ele>44.25</ele>
      </trkpt>
      <trkpt lat="51.244943998754025" lon="6.085431016981602">
        <ele>57.25</ele>
      </trkpt>
      <trkpt lat="51.243548998609185" lon="6.086092013865709">
        <ele>54.5</ele>
      </trkpt>
      <trkpt lat="51.2429419811815" lon="6.08545096591115">
        <ele>54</ele>
      </trkpt>
      <trkpt lat="51.242669988423586" lon="6.085120970383287">
        <ele>53</ele>
      </trkpt>
      <trkpt lat="51.2424379773438" lon="6.084841014817357">
        <ele>52.25</ele>
      </trkpt>
      <trkpt lat="51.24207596294582" lon="6.084276996552944">
        <ele>53.25</ele>
      </trkpt>
      <trkpt lat="51.241506999358535" lon="6.083135968074203">
        <ele>53.5</ele>
      </trkpt>
      <trkpt lat="51.24097902327776" lon="6.081982031464577">
        <ele>52.5</ele>
      </trkpt>
      <trkpt lat="51.24039798974991" lon="6.08093898743391">
        <ele>52.5</ele>
      </trkpt>
      <trkpt lat="51.24033403582871" lon="6.080838991329074">
        <ele>52.5</ele>
      </trkpt>
      <trkpt lat="51.240090960636735" lon="6.080457028001547">
        <ele>52.75</ele>
      </trkpt>
      <trkpt lat="51.239790972322226" lon="6.080211019143462">
        <ele>52.25</ele>
      </trkpt>
      <trkpt lat="51.23933399096131" lon="6.080060983076692">
        <ele>51.25</ele>
      </trkpt>
      <trkpt lat="51.239077001810074" lon="6.079875994473696">
        <ele>51.25</ele>
      </trkpt>
      <trkpt lat="51.23863804154098" lon="6.079280963167548">
        <ele>53</ele>
      </trkpt>
      <trkpt lat="51.23831802047789" lon="6.078877039253712">
        <ele>53</ele>
      </trkpt>
      <trkpt lat="51.23820603825152" lon="6.078719962388277">
        <ele>52.5</ele>
      </trkpt>
      <trkpt lat="51.23810595832765" lon="6.078558024019003">
        <ele>51.75</ele>
      </trkpt>
      <trkpt lat="51.23797503300011" lon="6.078316960483789">
        <ele>51</ele>
      </trkpt>
      <trkpt lat="51.237919963896275" lon="6.078198021277785">
        <ele>50.75</ele>
      </trkpt>
      <trkpt lat="51.23734597116709" lon="6.076374035328627">
        <ele>50.5</ele>
      </trkpt>
      <trkpt lat="51.2373420316726" lon="6.076355008408427">
        <ele>50.5</ele>
      </trkpt>
      <trkpt lat="51.2372899800539" lon="6.076116040349007">
        <ele>50</ele>
      </trkpt>
      <trkpt lat="51.23725603334606" lon="6.075955023989081">
        <ele>49.75</ele>
      </trkpt>
      <trkpt lat="51.237277993932366" lon="6.075557973235846">
        <ele>49.75</ele>
      </trkpt>
      <trkpt lat="51.23730598948896" lon="6.075353035703301">
        <ele>49.75</ele>
      </trkpt>
      <trkpt lat="51.237341025844216" lon="6.074879039078951">
        <ele>49.75</ele>
      </trkpt>
      <trkpt lat="51.23728402890265" lon="6.074173031374812">
        <ele>50.25</ele>
      </trkpt>
      <trkpt lat="51.23719501309097" lon="6.07335202395916">
        <ele>50.75</ele>
      </trkpt>
      <trkpt lat="51.23715897090733" lon="6.072875009849668">
        <ele>48</ele>
      </trkpt>
      <trkpt lat="51.23716299422085" lon="6.072548031806946">
        <ele>46</ele>
      </trkpt>
      <trkpt lat="51.23720096424222" lon="6.072190040722489">
        <ele>44</ele>
      </trkpt>
      <trkpt lat="51.23722401447594" lon="6.071767006069422">
        <ele>41.5</ele>
      </trkpt>
      <trkpt lat="51.2368100322783" lon="6.071721995249391">
        <ele>41.25</ele>
      </trkpt>
      <trkpt lat="51.235617035999894" lon="6.071594003587961">
        <ele>40.75</ele>
      </trkpt>
      <trkpt lat="51.23595197685063" lon="6.070186011493206">
        <ele>36</ele>
      </trkpt>
      <trkpt lat="51.23598298989236" lon="6.069975960999727">
        <ele>35.25</ele>
      </trkpt>
      <trkpt lat="51.23599598184228" lon="6.069816034287214">
        <ele>35.25</ele>
      </trkpt>
      <trkpt lat="51.2355509866029" lon="6.069729030132294">
        <ele>36</ele>
      </trkpt>
      <trkpt lat="51.235211016610265" lon="6.069662980735302">
        <ele>36.75</ele>
      </trkpt>
      <trkpt lat="51.23502301052213" lon="6.069599026814103">
        <ele>36.75</ele>
      </trkpt>
      <trkpt lat="51.23492703773081" lon="6.069584023207426">
        <ele>36.75</ele>
      </trkpt>
      <trkpt lat="51.23475797474384" lon="6.069559967145324">
        <ele>36.75</ele>
      </trkpt>
      <trkpt lat="51.234583966434" lon="6.069490984082222">
        <ele>36.5</ele>
      </trkpt>
      <trkpt lat="51.23433996923268" lon="6.069342037662864">
        <ele>36.25</ele>
      </trkpt>
      <trkpt lat="51.23429596424103" lon="6.06931303627789">
        <ele>36</ele>
      </trkpt>
      <trkpt lat="51.23369003646076" lon="6.068877009674907">
        <ele>33.5</ele>
      </trkpt>
      <trkpt lat="51.2332749646157" lon="6.068634018301964">
        <ele>32</ele>
      </trkpt>
      <trkpt lat="51.233084024861455" lon="6.068508038297296">
        <ele>32.75</ele>
      </trkpt>
      <trkpt lat="51.23305703513324" lon="6.068469984456897">
        <ele>32.75</ele>
      </trkpt>
      <trkpt lat="51.23300800099969" lon="6.068424973636866">
        <ele>33</ele>
      </trkpt>
      <trkpt lat="51.23308997601271" lon="6.06813495978713">
        <ele>33</ele>
      </trkpt>
      <trkpt lat="51.23305996879935" lon="6.068114005029202">
        <ele>33.25</ele>
      </trkpt>
      <trkpt lat="51.232954021543264" lon="6.06804602779448">
        <ele>33.5</ele>
      </trkpt>
      <trkpt lat="51.23288596048951" lon="6.068019960075617">
        <ele>33.75</ele>
      </trkpt>
      <trkpt lat="51.23259401880205" lon="6.067968998104334">
        <ele>34.75</ele>
      </trkpt>
      <trkpt lat="51.23242302797735" lon="6.067961035296321">
        <ele>34.5</ele>
      </trkpt>
      <trkpt lat="51.23200896196067" lon="6.067945025861263">
        <ele>34.25</ele>
      </trkpt>
      <trkpt lat="51.23197903856635" lon="6.067547975108028">
        <ele>34.25</ele>
      </trkpt>
      <trkpt lat="51.23193897306919" lon="6.067132987082005">
        <ele>34.25</ele>
      </trkpt>
      <trkpt lat="51.23193796724081" lon="6.066970964893699">
        <ele>34.25</ele>
      </trkpt>
      <trkpt lat="51.231945008039474" lon="6.066854037344456">
        <ele>34.25</ele>
      </trkpt>
      <trkpt lat="51.23199697583914" lon="6.066504009068012">
        <ele>34.25</ele>
      </trkpt>
      <trkpt lat="51.23201600275934" lon="6.066455980762839">
        <ele>34.25</ele>
      </trkpt>
      <trkpt lat="51.232052966952324" lon="6.066436031833291">
        <ele>34.25</ele>
      </trkpt>
      <trkpt lat="51.2321890052408" lon="6.066407030448318">
        <ele>34.25</ele>
      </trkpt>
      <trkpt lat="51.23223996721208" lon="6.066385991871357">
        <ele>34.25</ele>
      </trkpt>
      <trkpt lat="51.2322630174458" lon="6.066357996314764">
        <ele>34.25</ele>
      </trkpt>
      <trkpt lat="51.23230299912393" lon="6.066250037401915">
        <ele>34.25</ele>
      </trkpt>
      <trkpt lat="51.23235899023712" lon="6.065977038815618">
        <ele>34</ele>
      </trkpt>
      <trkpt lat="51.23238396830857" lon="6.065819039940834">
        <ele>34</ele>
      </trkpt>
      <trkpt lat="51.23242302797735" lon="6.065661041066051">
        <ele>34</ele>
      </trkpt>
      <trkpt lat="51.232485976070166" lon="6.065499018877745">
        <ele>34</ele>
      </trkpt>
      <trkpt lat="51.23258396051824" lon="6.065279999747872">
        <ele>34</ele>
      </trkpt>
      <trkpt lat="51.23272896744311" lon="6.065113032236695">
        <ele>34.5</ele>
      </trkpt>
      <trkpt lat="51.2328090146184" lon="6.065007001161575">
        <ele>34.5</ele>
      </trkpt>
      <trkpt lat="51.23285503126681" lon="6.064903987571597">
        <ele>34.5</ele>
      </trkpt>
      <trkpt lat="51.23297296464443" lon="6.064552031457424">
        <ele>34</ele>
      </trkpt>
      <trkpt lat="51.233018981292844" lon="6.064490005373955">
        <ele>34</ele>
      </trkpt>
      <trkpt lat="51.233064997941256" lon="6.064451029524207">
        <ele>34</ele>
      </trkpt>
      <trkpt lat="51.23311897739768" lon="6.0643529612571">
        <ele>33.75</ele>
      </trkpt>
      <trkpt lat="51.23317899182439" lon="6.064262017607689">
        <ele>33.75</ele>
      </trkpt>
      <trkpt lat="51.23318703845143" lon="6.064251037314534">
        <ele>33.75</ele>
      </trkpt>
      <trkpt lat="51.23324504122138" lon="6.064191022887826">
        <ele>33.75</ele>
      </trkpt>
      <trkpt lat="51.2332939915359" lon="6.064160009846091">
        <ele>33.75</ele>
      </trkpt>
      <trkpt lat="51.23330899514258" lon="6.06387997046113">
        <ele>33.25</ele>
      </trkpt>
      <trkpt lat="51.23317798599601" lon="6.063865972682834">
        <ele>32.75</ele>
      </trkpt>
      <trkpt lat="51.23311897739768" lon="6.063849963247776">
        <ele>32.75</ele>
      </trkpt>
      <trkpt lat="51.23306700959802" lon="6.06381299905479">
        <ele>32.5</ele>
      </trkpt>
      <trkpt lat="51.23288202099502" lon="6.063678972423077">
        <ele>32</ele>
      </trkpt>
      <trkpt lat="51.23285603709519" lon="6.063656006008387">
        <ele>31.75</ele>
      </trkpt>
      <trkpt lat="51.23283399268985" lon="6.063619963824749">
        <ele>31.75</ele>
      </trkpt>
      <trkpt lat="51.232826029881835" lon="6.063560033217073">
        <ele>31.75</ele>
      </trkpt>
      <trkpt lat="51.23281395994127" lon="6.063371021300554">
        <ele>31.25</ele>
      </trkpt>
      <trkpt lat="51.23283298686147" lon="6.063149990513921">
        <ele>31.25</ele>
      </trkpt>
      <trkpt lat="51.232826029881835" lon="6.063058041036129">
        <ele>31.25</ele>
      </trkpt>
      <trkpt lat="51.232803985476494" lon="6.062968019396067">
        <ele>31.25</ele>
      </trkpt>
      <trkpt lat="51.232781019061804" lon="6.062901969999075">
        <ele>31.25</ele>
      </trkpt>
      <trkpt lat="51.232718992978334" lon="6.062784036621451">
        <ele>31.25</ele>
      </trkpt>
      <trkpt lat="51.23268697410822" lon="6.062741037458181">
        <ele>31</ele>
      </trkpt>
      <trkpt lat="51.23260399326682" lon="6.062704995274544">
        <ele>31</ele>
      </trkpt>
      <trkpt lat="51.23243300244212" lon="6.062573986127973">
        <ele>30.75</ele>
      </trkpt>
      <trkpt lat="51.23240601271391" lon="6.062494022771716">
        <ele>30.75</ele>
      </trkpt>
      <trkpt lat="51.23239000327885" lon="6.06241799890995">
        <ele>30.75</ele>
      </trkpt>
      <trkpt lat="51.2324149813503" lon="6.062277015298605">
        <ele>30.75</ele>
      </trkpt>
      <trkpt lat="51.23248999938369" lon="6.062024971470237">
        <ele>30.75</ele>
      </trkpt>
      <trkpt lat="51.23262897133827" lon="6.06192396953702">
        <ele>30.75</ele>
      </trkpt>
      <trkpt lat="51.23264699243009" lon="6.061911983415484">
        <ele>31</ele>
      </trkpt>
      <trkpt lat="51.23274900019169" lon="6.061614006757736">
        <ele>31</ele>
      </trkpt>
      <trkpt lat="51.23277900740504" lon="6.061603026464582">
        <ele>31.25</ele>
      </trkpt>
      <trkpt lat="51.232932982966304" lon="6.061545023694634">
        <ele>31.5</ele>
      </trkpt>
      <trkpt lat="51.23294798657298" lon="6.061535971239209">
        <ele>31.5</ele>
      </trkpt>
      <trkpt lat="51.232958966866136" lon="6.0615140106529">
        <ele>31.5</ele>
      </trkpt>
      <trkpt lat="51.23298402875662" lon="6.061346959322691">
        <ele>31.5</ele>
      </trkpt>
      <trkpt lat="51.233063992112875" lon="6.060184976086021">
        <ele>32.5</ele>
      </trkpt>
      <trkpt lat="51.23308997601271" lon="6.059721959754825">
        <ele>32.5</ele>
      </trkpt>
      <trkpt lat="51.233085030689836" lon="6.059622969478369">
        <ele>32.5</ele>
      </trkpt>
      <trkpt lat="51.23306902125478" lon="6.059505958110094">
        <ele>32.25</ele>
      </trkpt>
      <trkpt lat="51.23303800821304" lon="6.059360029175878">
        <ele>32</ele>
      </trkpt>
      <trkpt lat="51.232933988794684" lon="6.059008995071054">
        <ele>31</ele>
      </trkpt>
      <trkpt lat="51.23302702791989" lon="6.058945963159204">
        <ele>31.5</ele>
      </trkpt>
      <trkpt lat="51.23313398100436" lon="6.058896007016301">
        <ele>32</ele>
      </trkpt>
      <trkpt lat="51.23334897682071" lon="6.058798022568226">
        <ele>33.5</ele>
      </trkpt>
      <trkpt lat="51.23341200873256" lon="6.058786958456039">
        <ele>33.5</ele>
      </trkpt>
      <trkpt lat="51.23369003646076" lon="6.058772038668394">
        <ele>33.5</ele>
      </trkpt>
      <trkpt lat="51.23371995985508" lon="6.05844397097826">
        <ele>33.5</ele>
      </trkpt>
      <trkpt lat="51.23374896124005" lon="6.058139037340879">
        <ele>32.75</ele>
      </trkpt>
      <trkpt lat="51.23375600203872" lon="6.058067036792636">
        <ele>32.5</ele>
      </trkpt>
      <trkpt lat="51.23385298065841" lon="6.057072021067143">
        <ele>30</ele>
      </trkpt>
      <trkpt lat="51.23387795872986" lon="6.056840009987354">
        <ele>29.5</ele>
      </trkpt>
      <trkpt lat="51.233943002298474" lon="6.056157974526286">
        <ele>29.75</ele>
      </trkpt>
      <trkpt lat="51.23399798758328" lon="6.055760001763701">
        <ele>30</ele>
      </trkpt>
      <trkpt lat="51.23388701118529" lon="6.055547017604113">
        <ele>30</ele>
      </trkpt>
      <trkpt lat="51.2337760347873" lon="6.055335039272904">
        <ele>30.25</ele>
      </trkpt>
      <trkpt lat="51.23348803259432" lon="6.054509002715349">
        <ele>29.5</ele>
      </trkpt>
      <trkpt lat="51.23339499346912" lon="6.054242961108685">
        <ele>29</ele>
      </trkpt>
      <trkpt lat="51.233343025669456" lon="6.05395101942122">
        <ele>28.5</ele>
      </trkpt>
      <trkpt lat="51.233300026506186" lon="6.053637033328414">
        <ele>28.25</ele>
      </trkpt>
      <trkpt lat="51.2332250084728" lon="6.053225984796882">
        <ele>27.75</ele>
      </trkpt>
      <trkpt lat="51.23318603262305" lon="6.052893977612257">
        <ele>27.75</ele>
      </trkpt>
      <trkpt lat="51.233168011531234" lon="6.052711000666022">
        <ele>27.75</ele>
      </trkpt>
      <trkpt lat="51.2332059815526" lon="6.052559958770871">
        <ele>27.75</ele>
      </trkpt>
      <trkpt lat="51.233217967674136" lon="6.052541015669704">
        <ele>27.75</ele>
      </trkpt>
      <trkpt lat="51.233255015686154" lon="6.052484018728137">
        <ele>27.75</ele>
      </trkpt>
      <trkpt lat="51.23327001929283" lon="6.052382010966539">
        <ele>27.75</ele>
      </trkpt>
      <trkpt lat="51.23329097405076" lon="6.051392024382949">
        <ele>27.5</ele>
      </trkpt>
      <trkpt lat="51.23328200541437" lon="6.051119025796652">
        <ele>27.25</ele>
      </trkpt>
      <trkpt lat="51.233280999585986" lon="6.050878968089819">
        <ele>26.75</ele>
      </trkpt>
      <trkpt lat="51.23326499015093" lon="6.050606975331903">
        <ele>26.75</ele>
      </trkpt>
      <trkpt lat="51.23324696905911" lon="6.050440007820725">
        <ele>26.75</ele>
      </trkpt>
      <trkpt lat="51.23324504122138" lon="6.05034101754427">
        <ele>26.75</ele>
      </trkpt>
      <trkpt lat="51.23324001207948" lon="6.050290977582336">
        <ele>26.75</ele>
      </trkpt>
      <trkpt lat="51.233235988765955" lon="6.050241021439433">
        <ele>26.75</ele>
      </trkpt>
      <trkpt lat="51.23322903178632" lon="6.0501270275563">
        <ele>26.75</ele>
      </trkpt>
      <trkpt lat="51.23321603983641" lon="6.050046980381012">
        <ele>26.75</ele>
      </trkpt>
      <trkpt lat="51.23281597159803" lon="6.049152966588736">
        <ele>26.75</ele>
      </trkpt>
      <trkpt lat="51.23276601545513" lon="6.048961021006107">
        <ele>26.5</ele>
      </trkpt>
      <trkpt lat="51.23275402933359" lon="6.048878962174058">
        <ele>26.5</ele>
      </trkpt>
      <trkpt lat="51.232744976878166" lon="6.048586014658213">
        <ele>26.5</ele>
      </trkpt>
      <trkpt lat="51.23277003876865" lon="6.048016967251897">
        <ele>26.25</ele>
      </trkpt>
      <trkpt lat="51.23277498409152" lon="6.047918982803822">
        <ele>26</ele>
      </trkpt>
      <trkpt lat="51.232785964384675" lon="6.047437023371458">
        <ele>25.5</ele>
      </trkpt>
      <trkpt lat="51.23279602266848" lon="6.047253040596843">
        <ele>25.5</ele>
      </trkpt>
      <trkpt lat="51.23279300518334" lon="6.04718497954309">
        <ele>25.5</ele>
      </trkpt>
      <trkpt lat="51.23276702128351" lon="6.047056987881661">
        <ele>25.5</ele>
      </trkpt>
      <trkpt lat="51.23272796161473" lon="6.046922961249948">
        <ele>25.25</ele>
      </trkpt>
      <trkpt lat="51.23268697410822" lon="6.046782983466983">
        <ele>25.25</ele>
      </trkpt>
      <trkpt lat="51.23267096467316" lon="6.046649040654302">
        <ele>25.25</ele>
      </trkpt>
      <trkpt lat="51.232674987986684" lon="6.046569999307394">
        <ele>25.25</ele>
      </trkpt>
      <trkpt lat="51.23266601935029" lon="6.046519037336111">
        <ele>25</ele>
      </trkpt>
      <trkpt lat="51.232635006308556" lon="6.046458017081022">
        <ele>25</ele>
      </trkpt>
      <trkpt lat="51.232631988823414" lon="6.046441001817584">
        <ele>25</ele>
      </trkpt>
      <trkpt lat="51.23264699243009" lon="6.046183006837964">
        <ele>24.5</ele>
      </trkpt>
      <trkpt lat="51.23264598660171" lon="6.045521004125476">
        <ele>23.75</ele>
      </trkpt>
      <trkpt lat="51.232636012136936" lon="6.045384965837002">
        <ele>23.5</ele>
      </trkpt>
      <trkpt lat="51.23268898576498" lon="6.045365016907454">
        <ele>23.5</ele>
      </trkpt>
      <trkpt lat="51.23268596827984" lon="6.045210035517812">
        <ele>23.25</ele>
      </trkpt>
      <trkpt lat="51.232674987986684" lon="6.045127976685762">
        <ele>23.25</ele>
      </trkpt>
      <trkpt lat="51.23266903683543" lon="6.04507802054286">
        <ele>23.25</ele>
      </trkpt>
      <trkpt lat="51.232678005471826" lon="6.044986993074417">
        <ele>23</ele>
      </trkpt>
      <trkpt lat="51.232675993815064" lon="6.04484198614955">
        <ele>23.25</ele>
      </trkpt>
      <trkpt lat="51.232655961066484" lon="6.044745007529855">
        <ele>23</ele>
      </trkpt>
      <trkpt lat="51.23268102295697" lon="6.04469396173954">
        <ele>23.25</ele>
      </trkpt>
      <trkpt lat="51.23272703960538" lon="6.044638976454735">
        <ele>23.25</ele>
      </trkpt>
      <trkpt lat="51.23282100073993" lon="6.044581979513168">
        <ele>23.5</ele>
      </trkpt>
      <trkpt lat="51.23294597491622" lon="6.044528000056744">
        <ele>23.75</ele>
      </trkpt>
      <trkpt lat="51.232868023216724" lon="6.043914025649428">
        <ele>24</ele>
      </trkpt>
      <trkpt lat="51.232851007953286" lon="6.043672040104866">
        <ele>24</ele>
      </trkpt>
      <trkpt lat="51.23285201378167" lon="6.04363800957799">
        <ele>24</ele>
      </trkpt>
      <trkpt lat="51.23286198824644" lon="6.043479004874826">
        <ele>24</ele>
      </trkpt>
      <trkpt lat="51.23287699185312" lon="6.04340298101306">
        <ele>24.25</ele>
      </trkpt>
      <trkpt lat="51.23289501294494" lon="6.043346989899874">
        <ele>24.25</ele>
      </trkpt>
      <trkpt lat="51.23292996548116" lon="6.043298961594701">
        <ele>24.5</ele>
      </trkpt>
      <trkpt lat="51.232959972694516" lon="6.043214974924922">
        <ele>24.75</ele>
      </trkpt>
      <trkpt lat="51.232976987957954" lon="6.043130988255143">
        <ele>24.75</ele>
      </trkpt>
      <trkpt lat="51.23298101127148" lon="6.043086983263493">
        <ele>25</ele>
      </trkpt>
      <trkpt lat="51.23296399600804" lon="6.04299696162343">
        <ele>25</ele>
      </trkpt>
      <trkpt lat="51.23294496908784" lon="6.042940970510244">
        <ele>25</ele>
      </trkpt>
      <trkpt lat="51.23290699906647" lon="6.042893026024103">
        <ele>24.75</ele>
      </trkpt>
      <trkpt lat="51.23283801600337" lon="6.042838962748647">
        <ele>24.75</ele>
      </trkpt>
      <trkpt lat="51.23277900740504" lon="6.042817002162337">
        <ele>24.5</ele>
      </trkpt>
      <trkpt lat="51.23259795829654" lon="6.042664032429457">
        <ele>24</ele>
      </trkpt>
      <trkpt lat="51.23248899355531" lon="6.042517013847828">
        <ele>23.75</ele>
      </trkpt>
      <trkpt lat="51.23240601271391" lon="6.042294977232814">
        <ele>24</ele>
      </trkpt>
      <trkpt lat="51.23237198218703" lon="6.042148964479566">
        <ele>24</ele>
      </trkpt>
      <trkpt lat="51.232354966923594" lon="6.042048968374729">
        <ele>24</ele>
      </trkpt>
      <trkpt lat="51.23234901577234" lon="6.041967999190092">
        <ele>24</ele>
      </trkpt>
      <trkpt lat="51.232356978580356" lon="6.041841013357043">
        <ele>24</ele>
      </trkpt>
      <trkpt lat="51.23245404101908" lon="6.041311025619507">
        <ele>24</ele>
      </trkpt>
      <trkpt lat="51.23245404101908" lon="6.041266014799476">
        <ele>24</ele>
      </trkpt>
      <trkpt lat="51.23245898634195" lon="6.041006008163095">
        <ele>24</ele>
      </trkpt>
      <trkpt lat="51.23247600160539" lon="6.040460010990501">
        <ele>24</ele>
      </trkpt>
      <trkpt lat="51.23262695968151" lon="6.039831032976508">
        <ele>24.5</ele>
      </trkpt>
      <trkpt lat="51.232743971049786" lon="6.039803037419915">
        <ele>24.75</ele>
      </trkpt>
      <trkpt lat="51.23272997327149" lon="6.039586029946804">
        <ele>25</ele>
      </trkpt>
      <trkpt lat="51.23271698132157" lon="6.039386037737131">
        <ele>25.25</ele>
      </trkpt>
      <trkpt lat="51.232093032449484" lon="6.038878010585904">
        <ele>24</ele>
      </trkpt>
      <trkpt lat="51.23176999390125" lon="6.038630995899439">
        <ele>23</ele>
      </trkpt>
      <trkpt lat="51.231690030544996" lon="6.038565030321479">
        <ele>23</ele>
      </trkpt>
      <trkpt lat="51.231603026390076" lon="6.038499986752868">
        <ele>23</ele>
      </trkpt>
      <trkpt lat="51.231602020561695" lon="6.038498980924487">
        <ele>23</ele>
      </trkpt>
      <trkpt lat="51.23161501251161" lon="6.038455981761217">
        <ele>23</ele>
      </trkpt>
      <trkpt lat="51.231626998633146" lon="6.038413988426328">
        <ele>23</ele>
      </trkpt>
      <trkpt lat="51.23165298253298" lon="6.038334025070071">
        <ele>23</ele>
      </trkpt>
      <trkpt lat="51.23167703859508" lon="6.038259007036686">
        <ele>23</ele>
      </trkpt>
      <trkpt lat="51.23167896643281" lon="6.038221037015319">
        <ele>23</ele>
      </trkpt>
      <trkpt lat="51.23170101083815" lon="6.038039987906814">
        <ele>23.25</ele>
      </trkpt>
      <trkpt lat="51.23168399557471" lon="6.037986008450389">
        <ele>23.25</ele>
      </trkpt>
      <trkpt lat="51.231644013896585" lon="6.037850975990295">
        <ele>23.5</ele>
      </trkpt>
      <trkpt lat="51.23157100751996" lon="6.037742011249065">
        <ele>23.75</ele>
      </trkpt>
      <trkpt lat="51.23142197728157" lon="6.037573032081127">
        <ele>23.75</ele>
      </trkpt>
      <trkpt lat="51.231324998661876" lon="6.037484016269445">
        <ele>24</ele>
      </trkpt>
      <trkpt lat="51.231239000335336" lon="6.037363987416029">
        <ele>24</ele>
      </trkpt>
      <trkpt lat="51.231150990352035" lon="6.03725996799767">
        <ele>24</ele>
      </trkpt>
      <trkpt lat="51.23111603781581" lon="6.037304978817701">
        <ele>24</ele>
      </trkpt>
      <trkpt lat="51.23105996288359" lon="6.037346972152591">
        <ele>24</ele>
      </trkpt>
      <trkpt lat="51.230956027284265" lon="6.037329034879804">
        <ele>24</ele>
      </trkpt>
      <trkpt lat="51.230874974280596" lon="6.037284024059773">
        <ele>24</ele>
      </trkpt>
      <trkpt lat="51.23075301758945" lon="6.037172041833401">
        <ele>24</ele>
      </trkpt>
      <trkpt lat="51.230590995401144" lon="6.03695897385478">
        <ele>23.75</ele>
      </trkpt>
      <trkpt lat="51.23055595904589" lon="6.036966014653444">
        <ele>23.75</ele>
      </trkpt>
      <trkpt lat="51.230334006249905" lon="6.036547003313899">
        <ele>23.25</ele>
      </trkpt>
      <trkpt lat="51.230293018743396" lon="6.036467961966991">
        <ele>23.25</ele>
      </trkpt>
      <trkpt lat="51.230293" lon="6.036468">
        <ele>22</ele>
      </trkpt>
      <trkpt lat="51.230283" lon="6.036335">
        <ele>22</ele>
      </trkpt>
      <trkpt lat="51.23034" lon="6.03634">
        <ele>22.1</ele>
      </trkpt>
      <trkpt lat="51.230542" lon="6.036319">
        <ele>21.97</ele>
      </trkpt>
      <trkpt lat="51.230787" lon="6.036257">
        <ele>21.98</ele>
      </trkpt>
      <trkpt lat="51.231247" lon="6.035988">
        <ele>22</ele>
      </trkpt>
      <trkpt lat="51.231287" lon="6.035964">
        <ele>22</ele>
      </trkpt>
      <trkpt lat="51.231353" lon="6.036015">
        <ele>22</ele>
      </trkpt>
      <trkpt lat="51.231579" lon="6.035762">
        <ele>22</ele>
      </trkpt>
      <trkpt lat="51.231844" lon="6.036323">
        <ele>23.2</ele>
      </trkpt>
      <trkpt lat="51.231873" lon="6.036423">
        <ele>23.45</ele>
      </trkpt>
      <trkpt lat="51.23215" lon="6.036856">
        <ele>23.47</ele>
      </trkpt>
      <trkpt lat="51.23228" lon="6.037309">
        <ele>22.82</ele>
      </trkpt>
      <trkpt lat="51.232317" lon="6.037499">
        <ele>22</ele>
      </trkpt>
      <trkpt lat="51.232347" lon="6.037473">
        <ele>22</ele>
      </trkpt>
      <trkpt lat="51.232398" lon="6.037398">
        <ele>22.54</ele>
      </trkpt>
      <trkpt lat="51.232661" lon="6.037247">
        <ele>23</ele>
      </trkpt>
      <trkpt lat="51.232694" lon="6.037372">
        <ele>23</ele>
      </trkpt>
      <trkpt lat="51.232622" lon="6.037422">
        <ele>23</ele>
      </trkpt>
      <trkpt lat="51.232622" lon="6.037422">
        <ele>23</ele>
      </trkpt>
      <trkpt lat="51.233008" lon="6.037151">
        <ele>24</ele>
      </trkpt>
      <trkpt lat="51.233086" lon="6.037102">
        <ele>24</ele>
      </trkpt>
      <trkpt lat="51.233439" lon="6.036972">
        <ele>24.01</ele>
      </trkpt>
      <trkpt lat="51.233528" lon="6.036913">
        <ele>24.85</ele>
      </trkpt>
      <trkpt lat="51.233976" lon="6.036544">
        <ele>26</ele>
      </trkpt>
      <trkpt lat="51.234164" lon="6.036393">
        <ele>26.04</ele>
      </trkpt>
      <trkpt lat="51.234401" lon="6.036175">
        <ele>26.41</ele>
      </trkpt>
      <trkpt lat="51.234605" lon="6.035845">
        <ele>26</ele>
      </trkpt>
      <trkpt lat="51.234772" lon="6.035594">
        <ele>25.69</ele>
      </trkpt>
      <trkpt lat="51.2355" lon="6.034709">
        <ele>23.07</ele>
      </trkpt>
      <trkpt lat="51.236104" lon="6.033879">
        <ele>23</ele>
      </trkpt>
      <trkpt lat="51.236116" lon="6.033903">
        <ele>22.95</ele>
      </trkpt>
    </trkseg>
  </trk>
</gpx>
